MONOLITH                
1 49052U 21068A   26068.54548855  .00008348  00000+0  53656-3 0  9993
2 49052  37.0220 141.2957 0002679 131.6464 228.4511 15.08010119252226
STARLINK-4068           
1 52681U 22053AB  26068.47871149 -.00000833  00000+0 -34284-4 0  9997
2 52681  53.2176 145.0683 0001384  86.5681 273.5469 15.08838363211101
